CHINASAT 26 (ZX 26)     
1 55686U 23023A   23082.36062920 -.00000367  00000+0  00000+0 0  9998
2 55686   0.0542  61.1820 0003918   0.8461  13.4103  1.00268687   393
CZ-3B R/B               
1 55687U 23023B   23080.13110859  .00046909  76070-6  34877-2 0  9997
2 55687  27.8815 317.2457 7203831 195.5333 117.5449  2.40717549   624
SOYUZ-MS 23             
1 55688U 23024A   23082.39717484  .00016571  00000+0  30373-3 0  9999
2 55688  51.6420  33.5716 0006039 122.8805  22.8850 15.49417071388486
HORUS 1                 
1 55690U 23025A   23082.81365052  .00012357  00000+0  52500-3 0  9994
2 55690  97.4694 156.5994 0015781 141.7631 286.9711 15.23085682  4198
CZ-2C R/B               
1 55691U 23025B   23082.96658748  .00010554  00000+0  49122-3 0  9991
2 55691  97.5979 157.1399 0066446 185.7468 174.3017 15.18130423  4201
CZ-2C DEB               
1 55692U 23025C   23082.72638177  .00089038  00000+0  38198-2 0  9993
2 55692  97.6487 156.8374 0085534 134.5972 226.3298 15.19052944  4185
CZ-2C DEB               
1 55693U 23025D   23082.72442046  .00146840  00000+0  60453-2 0  9996
2 55693  97.2420 155.4833 0083613 134.5591 226.4176 15.20329706  4166
2023-025E               
1 55694U 23025E   23082.65069692  .00035847  00000+0  30228-2 0  9992
2 55694  97.2689 154.3638 0155003  76.0348 285.8294 14.89130638  4098
STARLINK-30050          
1 55695U 23026A   23082.91667824  .01313333  00000+0  76354-1 0  9993
2 55695  52.9981 202.8679 0001475  83.1930 221.1371 15.08662725  1304
STARLINK-30038          
1 55696U 23026B   23082.88034598  .00039965  00000+0  35402-3 0  9992
2 55696  43.0044 140.3925 0001127 258.7498 101.3242 15.67894027  4945
STARLINK-30040          
1 55697U 23026C   23082.91667824  .01313333  00000+0  76354-1 0  9995
2 55697  52.9981 202.8679 0001475  83.1930 221.1371 15.08662725  1306
STARLINK-30061          
1 55698U 23026D   23082.91667824  .01313333  00000+0  76354-1 0  9996
2 55698  52.9981 202.8679 0001475  83.1930 221.1371 15.08662725  1307
STARLINK-30055          
1 55699U 23026E   23082.91667824  .01313333  00000+0  76354-1 0  9997
2 55699  52.9981 202.8679 0001475  83.1930 221.1371 15.08662725  1308
STARLINK-30064          
1 55700U 23026F   23082.91667824  .01313333  00000+0  76354-1 0  9990
2 55700  52.9981 202.8679 0001475  83.1930 221.1371 15.08662725  1301
STARLINK-30065          
1 55701U 23026G   23082.91667824  .01313333  00000+0  76354-1 0  9991
2 55701  52.9981 202.8679 0001475  83.1930 221.1371 15.08662725  1302
STARLINK-30042          
1 55702U 23026H   23082.91667824  .01313333  00000+0  76354-1 0  9992
2 55702  52.9981 202.8679 0001475  83.1930 221.1371 15.08662725  1303
STARLINK-30044          
1 55703U 23026J   23082.91667824  .01313333  00000+0  76354-1 0  9993
2 55703  52.9981 202.8679 0001475  83.1930 221.1371 15.08662725  1304
STARLINK-30051          
1 55704U 23026K   23082.91667824  .01313333  00000+0  76354-1 0  9994
2 55704  52.9981 202.8679 0001475  83.1930 221.1371 15.08662725  1305
STARLINK-30057          
1 55705U 23026L   23082.91667824  .01313333  00000+0  76354-1 0  9995
2 55705  52.9981 202.8679 0001475  83.1930 221.1371 15.08662725  1306
STARLINK-30054          
1 55706U 23026M   23082.91667824  .01313333  00000+0  76354-1 0  9996
2 55706  52.9981 202.8679 0001475  83.1930 221.1371 15.08662725  1307
STARLINK-30060          
1 55707U 23026N   23082.64032073  .00137461  00000+0  13255-2 0  9996
2 55707  43.0004 142.0463 0003968  91.8677 268.2643 15.65305057  4902
STARLINK-30058          
1 55708U 23026P   23082.87482269  .00189981  00000+0  16346-2 0  9996
2 55708  43.0025 140.3614 0001376 233.4464 126.6276 15.67952004  4949
STARLINK-30047          
1 55709U 23026Q   23082.91667824  .01313333  00000+0  76354-1 0  9999
2 55709  52.9981 202.8679 0001475  83.1930 221.1371 15.08662725  1300
STARLINK-30046          
1 55710U 23026R   23082.91667824  .01313333  00000+0  76354-1 0  9991
2 55710  52.9981 202.8679 0001475  83.1930 221.1371 15.08662725  1302
STARLINK-30048          
1 55711U 23026S   23082.91667824  .01313333  00000+0  76354-1 0  9992
2 55711  52.9981 202.8679 0001475  83.1930 221.1371 15.08662725  1303
STARLINK-30037          
1 55712U 23026T   23082.91667824  .01313333  00000+0  76354-1 0  9993
2 55712  52.9981 202.8679 0001475  83.1930 221.1371 15.08662725  1304
STARLINK-30063          
1 55713U 23026U   23082.91667824  .01313333  00000+0  76354-1 0  9994
2 55713  52.9981 202.8679 0001475  83.1930 221.1371 15.08662725  1305
STARLINK-30059          
1 55714U 23026V   23082.91667824  .01313333  00000+0  76354-1 0  9995
2 55714  52.9981 202.8679 0001475  83.1930 221.1371 15.08662725  1306
STARLINK-30062          
1 55715U 23026W   23082.63284536  .00215328  00000+0  19337-2 0  9993
2 55715  43.0031 141.9981 0002563  63.1934 296.9194 15.66815178  4902
CREW DRAGON 6           
1 55740U 23027A   23082.39717484  .00016571  00000+0  30373-3 0  9991
2 55740  51.6420  33.5716 0006039 122.8805  22.8850 15.49417071388485
STARLINK-5592           
1 55741U 23028A   23082.91667824  .01313333  00000+0  76354-1 0  9997
2 55741  52.9981 202.8679 0001475  83.1930 221.1371 15.08662725  3836
STARLINK-5594           
1 55742U 23028B   23082.91667824  .01313333  00000+0  76354-1 0  9998
2 55742  52.9981 202.8679 0001475  83.1930 221.1371 15.08662725  3837
STARLINK-5602           
1 55743U 23028C   23082.91667824  .01313333  00000+0  76354-1 0  9999
2 55743  52.9981 202.8679 0001475  83.1930 221.1371 15.08662725  3838
STARLINK-5601           
1 55744U 23028D   23082.91667824  .01313333  00000+0  76354-1 0  9990
2 55744  52.9981 202.8679 0001475  83.1930 221.1371 15.08662725  3839
STARLINK-5565           
1 55745U 23028E   23082.91667824  .01313333  00000+0  76354-1 0  9991
2 55745  52.9981 202.8679 0001475  83.1930 221.1371 15.08662725  3830
STARLINK-5579           
1 55746U 23028F   23082.91667824  .01313333  00000+0  76354-1 0  9992
2 55746  52.9981 202.8679 0001475  83.1930 221.1371 15.08662725  3831
STARLINK-5539           
1 55747U 23028G   23082.91667824  .01313333  00000+0  76354-1 0  9993
2 55747  52.9981 202.8679 0001475  83.1930 221.1371 15.08662725  3832
STARLINK-5580           
1 55748U 23028H   23082.91667824  .01313333  00000+0  76354-1 0  9994
2 55748  52.9981 202.8679 0001475  83.1930 221.1371 15.08662725  3833
STARLINK-5560           
1 55749U 23028J   23082.91667824  .01313333  00000+0  76354-1 0  9995
2 55749  52.9981 202.8679 0001475  83.1930 221.1371 15.08662725  1304
STARLINK-5573           
1 55750U 23028K   23082.91667824  .01313333  00000+0  76354-1 0  9997
2 55750  52.9981 202.8679 0001475  83.1930 221.1371 15.08662725  3836
STARLINK-5577           
1 55751U 23028L   23082.91667824  .01313333  00000+0  76354-1 0  9998
2 55751  52.9981 202.8679 0001475  83.1930 221.1371 15.08662725  3837
STARLINK-5613           
1 55752U 23028M   23082.91667824  .01313333  00000+0  76354-1 0  9999
2 55752  52.9981 202.8679 0001475  83.1930 221.1371 15.08662725  3838
STARLINK-5617           
1 55753U 23028N   23082.91667824  .01313333  00000+0  76354-1 0  9990
2 55753  52.9981 202.8679 0001475  83.1930 221.1371 15.08662725  3839
STARLINK-5612           
1 55754U 23028P   23082.91667824  .01313333  00000+0  76354-1 0  9991
2 55754  52.9981 202.8679 0001475  83.1930 221.1371 15.08662725  1300
STARLINK-5619           
1 55755U 23028Q   23082.91667824  .01313333  00000+0  76354-1 0  9992
2 55755  52.9981 202.8679 0001475  83.1930 221.1371 15.08662725  3831
STARLINK-5614           
1 55756U 23028R   23082.91667824  .01313333  00000+0  76354-1 0  9993
2 55756  52.9981 202.8679 0001475  83.1930 221.1371 15.08662725  1302
STARLINK-5544           
1 55757U 23028S   23082.91667824  .01313333  00000+0  76354-1 0  9994
2 55757  52.9981 202.8679 0001475  83.1930 221.1371 15.08662725  3833
STARLINK-5072           
1 55758U 23028T   23082.91667824  .01313333  00000+0  76354-1 0  9995
2 55758  52.9981 202.8679 0001475  83.1930 221.1371 15.08662725  3834
STARLINK-5081           
1 55759U 23028U   23082.91667824  .01313333  00000+0  76354-1 0  9996
2 55759  52.9981 202.8679 0001475  83.1930 221.1371 15.08662725  3835
STARLINK-5532           
1 55760U 23028V   23082.91667824  .01313333  00000+0  76354-1 0  9998
2 55760  52.9981 202.8679 0001475  83.1930 221.1371 15.08662725  1307
STARLINK-5611           
1 55761U 23028W   23082.91667824  .01313333  00000+0  76354-1 0  9999
2 55761  52.9981 202.8679 0001475  83.1930 221.1371 15.08662725  1308
STARLINK-5603           
1 55762U 23028X   23082.91667824  .01313333  00000+0  76354-1 0  9990
2 55762  52.9981 202.8679 0001475  83.1930 221.1371 15.08662725  1309
STARLINK-5593           
1 55763U 23028Y   23082.91667824  .01313333  00000+0  76354-1 0  9991
2 55763  52.9981 202.8679 0001475  83.1930 221.1371 15.08662725  1300
STARLINK-5499           
1 55764U 23028Z   23082.91667824  .01313333  00000+0  76354-1 0  9992
2 55764  52.9981 202.8679 0001475  83.1930 221.1371 15.08662725  1301
STARLINK-5595           
1 55765U 23028AA  23082.91667824  .01313333  00000+0  76354-1 0  9993
2 55765  52.9981 202.8679 0001475  83.1930 221.1371 15.08662725  1302
STARLINK-5599           
1 55766U 23028AB  23082.91667824  .01313333  00000+0  76354-1 0  9994
2 55766  52.9981 202.8679 0001475  83.1930 221.1371 15.08662725  1303
STARLINK-5606           
1 55767U 23028AC  23082.91667824  .01313333  00000+0  76354-1 0  9995
2 55767  52.9981 202.8679 0001475  83.1930 221.1371 15.08662725  1304
STARLINK-5583           
1 55768U 23028AD  23082.91667824  .01313333  00000+0  76354-1 0  9996
2 55768  52.9981 202.8679 0001475  83.1930 221.1371 15.08662725  1305
STARLINK-5584           
1 55769U 23028AE  23082.91667824  .01313333  00000+0  76354-1 0  9997
2 55769  52.9981 202.8679 0001475  83.1930 221.1371 15.08662725  1306
